1 27424U 02022A   10192.21208434  .00000098  00000-0  31643-4 0  6874
2 27424 098.1872 133.1201 0001882 060.2894 299.8504 14.57130746435417